<?xml version="1.0" encoding="UTF-8"?>
<ndm xmlns:xsi="http://www.w3.org/2001/XMLSchema-instance" xsi:noNamespaceSchemaLocation="https://sanaregistry.org/r/ndmxml_unqualified/ndmxml-2.0.0-master-2.0.xsd">
<omm id="CCSDS_OMM_VERS" version="2.0">
<header><CREATION_DATE/><ORIGINATOR/></header><body><segment><metadata><OBJECT_NAME>KUIPER-00133</OBJECT_NAME><OBJECT_ID>2025-217C</OBJECT_ID><CENTER_NAME>EARTH</CENTER_NAME><REF_FRAME>TEME</REF_FRAME><TIME_SYSTEM>UTC</TIME_SYSTEM><MEAN_ELEMENT_THEORY>SGP4</MEAN_ELEMENT_THEORY></metadata><data><meanElements><EPOCH>2025-11-27T04:00:03.000096</EPOCH><MEAN_MOTION>14.87687072</MEAN_MOTION><ECCENTRICITY>.0010967</ECCENTRICITY><INCLINATION>51.8954</INCLINATION><RA_OF_ASC_NODE>146.6024</RA_OF_ASC_NODE><ARG_OF_PERICENTER>343.9572</ARG_OF_PERICENTER><MEAN_ANOMALY>123.4628</MEAN_ANOMALY></meanElements><tleParameters><EPHEMERIS_TYPE>0</EPHEMERIS_TYPE><CLASSIFICATION_TYPE>U</CLASSIFICATION_TYPE><NORAD_CAT_ID>65764</NORAD_CAT_ID><ELEMENT_SET_NO>999</ELEMENT_SET_NO><REV_AT_EPOCH>562</REV_AT_EPOCH><BSTAR>-.49145E-2</BSTAR><MEAN_MOTION_DOT>-.45201E-3</MEAN_MOTION_DOT><MEAN_MOTION_DDOT>0</MEAN_MOTION_DDOT></tleParameters></data></segment></body></omm>
<omm id="CCSDS_OMM_VERS" version="2.0">
<header><CREATION_DATE/><ORIGINATOR/></header><body><segment><metadata><OBJECT_NAME>KUIPER-00139</OBJECT_NAME><OBJECT_ID>2025-217D</OBJECT_ID><CENTER_NAME>EARTH</CENTER_NAME><REF_FRAME>TEME</REF_FRAME><TIME_SYSTEM>UTC</TIME_SYSTEM><MEAN_ELEMENT_THEORY>SGP4</MEAN_ELEMENT_THEORY></metadata><data><meanElements><EPOCH>2025-11-27T04:00:03.000096</EPOCH><MEAN_MOTION>15.07612322</MEAN_MOTION><ECCENTRICITY>.0007219</ECCENTRICITY><INCLINATION>51.8845</INCLINATION><RA_OF_ASC_NODE>143.2609</RA_OF_ASC_NODE><ARG_OF_PERICENTER>324.1507</ARG_OF_PERICENTER><MEAN_ANOMALY>322.1421</MEAN_ANOMALY></meanElements><tleParameters><EPHEMERIS_TYPE>0</EPHEMERIS_TYPE><CLASSIFICATION_TYPE>U</CLASSIFICATION_TYPE><NORAD_CAT_ID>65765</NORAD_CAT_ID><ELEMENT_SET_NO>999</ELEMENT_SET_NO><REV_AT_EPOCH>427</REV_AT_EPOCH><BSTAR>-.71548E-1</BSTAR><MEAN_MOTION_DOT>-.1024632E-1</MEAN_MOTION_DOT><MEAN_MOTION_DDOT>0</MEAN_MOTION_DDOT></tleParameters></data></segment></body></omm>
<omm id="CCSDS_OMM_VERS" version="2.0">
<header><CREATION_DATE/><ORIGINATOR/></header><body><segment><metadata><OBJECT_NAME>KUIPER-00142</OBJECT_NAME><OBJECT_ID>2025-217E</OBJECT_ID><CENTER_NAME>EARTH</CENTER_NAME><REF_FRAME>TEME</REF_FRAME><TIME_SYSTEM>UTC</TIME_SYSTEM><MEAN_ELEMENT_THEORY>SGP4</MEAN_ELEMENT_THEORY></metadata><data><meanElements><EPOCH>2025-11-26T17:40:05.714400</EPOCH><MEAN_MOTION>15.37562399</MEAN_MOTION><ECCENTRICITY>.00027308</ECCENTRICITY><INCLINATION>51.8686</INCLINATION><RA_OF_ASC_NODE>141.7261</RA_OF_ASC_NODE><ARG_OF_PERICENTER>298.2505</ARG_OF_PERICENTER><MEAN_ANOMALY>61.8206</MEAN_ANOMALY></meanElements><tleParameters><EPHEMERIS_TYPE>0</EPHEMERIS_TYPE><CLASSIFICATION_TYPE>U</CLASSIFICATION_TYPE><NORAD_CAT_ID>65766</NORAD_CAT_ID><ELEMENT_SET_NO>999</ELEMENT_SET_NO><REV_AT_EPOCH>958</REV_AT_EPOCH><BSTAR>.96142724E-3</BSTAR><MEAN_MOTION_DOT>.35772E-3</MEAN_MOTION_DOT><MEAN_MOTION_DDOT>0</MEAN_MOTION_DDOT></tleParameters></data></segment></body></omm>
<omm id="CCSDS_OMM_VERS" version="2.0">
<header><CREATION_DATE/><ORIGINATOR/></header><body><segment><metadata><OBJECT_NAME>KUIPER-00145</OBJECT_NAME><OBJECT_ID>2025-217F</OBJECT_ID><CENTER_NAME>EARTH</CENTER_NAME><REF_FRAME>TEME</REF_FRAME><TIME_SYSTEM>UTC</TIME_SYSTEM><MEAN_ELEMENT_THEORY>SGP4</MEAN_ELEMENT_THEORY></metadata><data><meanElements><EPOCH>2025-11-27T04:00:03.000096</EPOCH><MEAN_MOTION>15.31642122</MEAN_MOTION><ECCENTRICITY>.0005532</ECCENTRICITY><INCLINATION>51.8726</INCLINATION><RA_OF_ASC_NODE>139.9226</RA_OF_ASC_NODE><ARG_OF_PERICENTER>297.0065</ARG_OF_PERICENTER><MEAN_ANOMALY>142.7576</MEAN_ANOMALY></meanElements><tleParameters><EPHEMERIS_TYPE>0</EPHEMERIS_TYPE><CLASSIFICATION_TYPE>U</CLASSIFICATION_TYPE><NORAD_CAT_ID>65767</NORAD_CAT_ID><ELEMENT_SET_NO>999</ELEMENT_SET_NO><REV_AT_EPOCH>578</REV_AT_EPOCH><BSTAR>-.22605E-1</BSTAR><MEAN_MOTION_DOT>-.652323E-2</MEAN_MOTION_DOT><MEAN_MOTION_DDOT>0</MEAN_MOTION_DDOT></tleParameters></data></segment></body></omm>
<omm id="CCSDS_OMM_VERS" version="2.0">
<header><CREATION_DATE/><ORIGINATOR/></header><body><segment><metadata><OBJECT_NAME>KUIPER-00147</OBJECT_NAME><OBJECT_ID>2025-217G</OBJECT_ID><CENTER_NAME>EARTH</CENTER_NAME><REF_FRAME>TEME</REF_FRAME><TIME_SYSTEM>UTC</TIME_SYSTEM><MEAN_ELEMENT_THEORY>SGP4</MEAN_ELEMENT_THEORY></metadata><data><meanElements><EPOCH>2025-11-27T04:00:03.000096</EPOCH><MEAN_MOTION>15.21723051</MEAN_MOTION><ECCENTRICITY>.0008844</ECCENTRICITY><INCLINATION>51.8729</INCLINATION><RA_OF_ASC_NODE>140.6812</RA_OF_ASC_NODE><ARG_OF_PERICENTER>321.2909</ARG_OF_PERICENTER><MEAN_ANOMALY>79.9214</MEAN_ANOMALY></meanElements><tleParameters><EPHEMERIS_TYPE>0</EPHEMERIS_TYPE><CLASSIFICATION_TYPE>U</CLASSIFICATION_TYPE><NORAD_CAT_ID>65768</NORAD_CAT_ID><ELEMENT_SET_NO>999</ELEMENT_SET_NO><REV_AT_EPOCH>355</REV_AT_EPOCH><BSTAR>-.78974E-2</BSTAR><MEAN_MOTION_DOT>-.177536E-2</MEAN_MOTION_DOT><MEAN_MOTION_DDOT>0</MEAN_MOTION_DDOT></tleParameters></data></segment></body></omm>
<omm id="CCSDS_OMM_VERS" version="2.0">
<header><CREATION_DATE/><ORIGINATOR/></header><body><segment><metadata><OBJECT_NAME>KUIPER-00148</OBJECT_NAME><OBJECT_ID>2025-217H</OBJECT_ID><CENTER_NAME>EARTH</CENTER_NAME><REF_FRAME>TEME</REF_FRAME><TIME_SYSTEM>UTC</TIME_SYSTEM><MEAN_ELEMENT_THEORY>SGP4</MEAN_ELEMENT_THEORY></metadata><data><meanElements><EPOCH>2025-11-27T04:00:03.000096</EPOCH><MEAN_MOTION>15.26047196</MEAN_MOTION><ECCENTRICITY>.0008011</ECCENTRICITY><INCLINATION>51.8642</INCLINATION><RA_OF_ASC_NODE>140.8785</RA_OF_ASC_NODE><ARG_OF_PERICENTER>340.5791</ARG_OF_PERICENTER><MEAN_ANOMALY>352.3514</MEAN_ANOMALY></meanElements><tleParameters><EPHEMERIS_TYPE>0</EPHEMERIS_TYPE><CLASSIFICATION_TYPE>U</CLASSIFICATION_TYPE><NORAD_CAT_ID>65769</NORAD_CAT_ID><ELEMENT_SET_NO>999</ELEMENT_SET_NO><REV_AT_EPOCH>209</REV_AT_EPOCH><BSTAR>-.11696E-1</BSTAR><MEAN_MOTION_DOT>-.294314E-2</MEAN_MOTION_DOT><MEAN_MOTION_DDOT>0</MEAN_MOTION_DDOT></tleParameters></data></segment></body></omm>
<omm id="CCSDS_OMM_VERS" version="2.0">
<header><CREATION_DATE/><ORIGINATOR/></header><body><segment><metadata><OBJECT_NAME>KUIPER-00150</OBJECT_NAME><OBJECT_ID>2025-217J</OBJECT_ID><CENTER_NAME>EARTH</CENTER_NAME><REF_FRAME>TEME</REF_FRAME><TIME_SYSTEM>UTC</TIME_SYSTEM><MEAN_ELEMENT_THEORY>SGP4</MEAN_ELEMENT_THEORY></metadata><data><meanElements><EPOCH>2025-11-27T04:00:03.000096</EPOCH><MEAN_MOTION>14.97775672</MEAN_MOTION><ECCENTRICITY>.0008835</ECCENTRICITY><INCLINATION>51.8850</INCLINATION><RA_OF_ASC_NODE>144.7299</RA_OF_ASC_NODE><ARG_OF_PERICENTER>321.3837</ARG_OF_PERICENTER><MEAN_ANOMALY>209.9965</MEAN_ANOMALY></meanElements><tleParameters><EPHEMERIS_TYPE>0</EPHEMERIS_TYPE><CLASSIFICATION_TYPE>U</CLASSIFICATION_TYPE><NORAD_CAT_ID>65770</NORAD_CAT_ID><ELEMENT_SET_NO>999</ELEMENT_SET_NO><REV_AT_EPOCH>408</REV_AT_EPOCH><BSTAR>-.15012E+0</BSTAR><MEAN_MOTION_DOT>-.1634977E-1</MEAN_MOTION_DOT><MEAN_MOTION_DDOT>0</MEAN_MOTION_DDOT></tleParameters></data></segment></body></omm>
<omm id="CCSDS_OMM_VERS" version="2.0">
<header><CREATION_DATE/><ORIGINATOR/></header><body><segment><metadata><OBJECT_NAME>KUIPER-00151</OBJECT_NAME><OBJECT_ID>2025-217K</OBJECT_ID><CENTER_NAME>EARTH</CENTER_NAME><REF_FRAME>TEME</REF_FRAME><TIME_SYSTEM>UTC</TIME_SYSTEM><MEAN_ELEMENT_THEORY>SGP4</MEAN_ELEMENT_THEORY></metadata><data><meanElements><EPOCH>2025-11-27T04:00:03.000096</EPOCH><MEAN_MOTION>15.19793812</MEAN_MOTION><ECCENTRICITY>.0002478</ECCENTRICITY><INCLINATION>51.8736</INCLINATION><RA_OF_ASC_NODE>141.0796</RA_OF_ASC_NODE><ARG_OF_PERICENTER>291.3786</ARG_OF_PERICENTER><MEAN_ANOMALY>335.0465</MEAN_ANOMALY></meanElements><tleParameters><EPHEMERIS_TYPE>0</EPHEMERIS_TYPE><CLASSIFICATION_TYPE>U</CLASSIFICATION_TYPE><NORAD_CAT_ID>65771</NORAD_CAT_ID><ELEMENT_SET_NO>999</ELEMENT_SET_NO><REV_AT_EPOCH>518</REV_AT_EPOCH><BSTAR>-.29123E-1</BSTAR><MEAN_MOTION_DOT>-.590614E-2</MEAN_MOTION_DOT><MEAN_MOTION_DDOT>0</MEAN_MOTION_DDOT></tleParameters></data></segment></body></omm>

</ndm>
