KUIPER-00133            
1 65764U 25217C   25331.16670139 -.00045201  00000+0 -49145-2 0  9990
2 65764  51.8954 146.6024 0010967 343.9572 123.4628 14.87687072  5620
KUIPER-00139            
1 65765U 25217D   25331.16670139 -.01024632  00000+0 -71548-1 0  9998
2 65765  51.8845 143.2609 0007219 324.1507 322.1421 15.07612322  4275
KUIPER-00142            
1 65766U 25217E   25330.73617725  .00035772  00000+0  96143-3 0  9997
2 65766  51.8686 141.7261 0002730 298.2505  61.8206 15.37562399  9586
KUIPER-00145            
1 65767U 25217F   25331.16670139 -.00652323  00000+0 -22605-1 0  9993
2 65767  51.8726 139.9226 0005532 297.0065 142.7576 15.31642122  5787
KUIPER-00147            
1 65768U 25217G   25331.16670139 -.00177536  00000+0 -78974-2 0  9993
2 65768  51.8729 140.6812 0008844 321.2909  79.9214 15.21723051  3550
KUIPER-00148            
1 65769U 25217H   25331.16670139 -.00294314  00000+0 -11696-1 0  9995
2 65769  51.8642 140.8785 0008011 340.5791 352.3514 15.26047196  2098
KUIPER-00150            
1 65770U 25217J   25331.16670139 -.01634977  00000+0 -15012+0 0  9995
2 65770  51.8850 144.7299 0008835 321.3837 209.9965 14.97775672  4088
KUIPER-00151            
1 65771U 25217K   25331.16670139 -.00590614  00000+0 -29123-1 0  9994
2 65771  51.8736 141.0796 0002478 291.3786 335.0465 15.19793812  5189
